NORAD_CAT_ID,OBJECT_NAME,OBJECT_TYPE,EPOCH,MEAN_MOTION,ECCENTRICITY,INCLINATION,RA_OF_ASC_NODE,ARG_OF_PERICENTER,MEAN_ANOMALY,BSTAR,MEAN_MOTION_DOT,MEAN_MOTION_DDOT,TLE_LINE0,TLE_LINE1,TLE_LINE2,SEMIMAJOR_AXIS,PERIOD,APOGEE,PERIGEE,DECAYED
51883.0,STARLINK-3576,PAYLOAD,2024-04-11 14:35:21,15.08837034,0.00015,53.2172,248.6241,79.8004,280.3157,3.5452e-05,2.76e-06,0.0,0 STARLINK-3576,1 51883U 22022AH  24102.60788197  .00000276  00000-0  35452-4 0  9996,2 51883  53.2172 248.6241 0001500  79.8004 280.3157 15.08837034118003,6917.889,95.438,540.792,538.717,0.0
51883.0,STARLINK-3576,PAYLOAD,2024-04-11 16:10:44,15.08837931,0.0001518,53.2172,248.3267,80.2354,279.8809,4.2502e-05,3.88e-06,0.0,0 STARLINK-3576,1 51883U 22022AH  24102.67412141  .00000388  00000-0  42502-4 0  9994,2 51883  53.2172 248.3267 0001518  80.2354 279.8809 15.08837931118015,6917.887,95.438,540.802,538.702,0.0
51883.0,STARLINK-3576,PAYLOAD,2024-04-12 14:26:07,15.08834978,0.0001349,53.2188,244.1607,113.6878,246.4256,8.9134e-05,1.131e-05,0.0,0 STARLINK-3576,1 51883U 22022AH  24103.60147979  .00001131  00000-0  89134-4 0  9991,2 51883  53.2188 244.1607 0001349 113.6878 246.4256 15.08834978118157,6917.896,95.438,540.694,538.828,0.0
51883.0,STARLINK-3576,PAYLOAD,2024-04-13 14:16:56,15.08797188,0.0001508,53.2188,239.7001,125.6493,234.464,0.00063787,9.866e-05,0.0,0 STARLINK-3576,1 51883U 22022AH  24104.59509499  .00009866  00000-0  63787-3 0  9997,2 51883  53.2188 239.7001 0001508 125.6493 234.4640 15.08797188118300,6918.011,95.44,540.919,538.833,0.0
51883.0,STARLINK-3576,PAYLOAD,2024-04-13 15:52:18,15.08835725,0.0001462,53.2184,239.4039,107.0069,253.1084,3.8032e-05,3.17e-06,0.0,0 STARLINK-3576,1 51883U 22022AH  24104.66132253  .00000317  00000-0  38032-4 0  9993,2 51883  53.2184 239.4039 0001462 107.0069 253.1084 15.08835725118317,6917.893,95.438,540.77,538.747,0.0
51883.0,STARLINK-3576,PAYLOAD,2024-04-14 14:07:42,15.088346,0.0001413,53.2184,235.241,104.7471,255.3678,0.00010224,1.339e-05,0.0,0 STARLINK-3576,1 51883U 22022AH  24105.58868542  .00001339  00000-0  10224-3 0  9999,2 51883  53.2184 235.2410 0001413 104.7471 255.3678 15.08834600118450,6917.897,95.438,540.739,538.784,0.0
51883.0,STARLINK-3576,PAYLOAD,2024-04-15 12:23:06,15.08839059,0.0001282,53.2179,231.075,91.6488,268.4651,0.00010805,1.432e-05,0.0,0 STARLINK-3576,1 51883U 22022AH  24106.51604522  .00001432  00000-0  10805-3 0  9998,2 51883  53.2179 231.0750 0001282  91.6488 268.4651 15.08839059118595,6917.883,95.438,540.635,538.861,0.0
51883.0,STARLINK-3576,PAYLOAD,2024-04-15 13:58:29,15.0883936,0.0001279,53.2178,230.7776,92.419,267.6948,0.00010899,1.447e-05,0.0,0 STARLINK-3576,1 51883U 22022AH  24106.58228508  .00001447  00000-0  10899-3 0  9990,2 51883  53.2178 230.7776 0001279  92.4190 267.6948 15.08839360118600,6917.882,95.438,540.632,538.863,0.0
51883.0,STARLINK-3576,PAYLOAD,2024-04-16 13:49:15,15.08863928,0.0001421,53.2167,226.3204,111.226,248.8884,0.00042152,6.431e-05,0.0,0 STARLINK-3576,1 51883U 22022AH  24107.57586956  .00006431  00000-0  42152-3 0  9999,2 51883  53.2167 226.3204 0001421 111.2260 248.8884 15.08863928118755,6917.807,95.436,540.655,538.689,0.0
51883.0,STARLINK-3576,PAYLOAD,2024-04-16 15:24:38,15.0886746,0.0001351,53.2171,226.026,90.968,269.1467,0.00043062,6.577e-05,0.0,0 STARLINK-3576,1 51883U 22022AH  24107.64210881  .00006577  00000-0  43062-3 0  9990,2 51883  53.2171 226.0260 0001351  90.9680 269.1467 15.08867460118769,6917.796,95.436,540.596,538.727,0.0
51883.0,STARLINK-3576,PAYLOAD,2024-04-17 13:40:05,15.0879183,0.0001404,53.2147,221.858,78.2966,281.8184,-0.00063738,-0.00010404,0.0,0 STARLINK-3576,1 51883U 22022AH  24108.56951125 -.00010404  00000-0 -63738-3 0  9993,2 51883  53.2147 221.8580 0001404  78.2966 281.8184 15.08791830118905,6918.028,95.441,540.864,538.921,0.0
51883.0,STARLINK-3576,PAYLOAD,2024-04-17 15:15:28,15.08799373,0.000132,53.2162,221.5626,96.5224,263.5918,-0.00042525,-7.042e-05,0.0,0 STARLINK-3576,1 51883U 22022AH  24108.63574966 -.00007042  00000-0 -42525-3 0  9990,2 51883  53.2162 221.5626 0001320  96.5224 263.5918 15.08799373118910,6918.005,95.44,540.783,538.956,0.0
51883.0,STARLINK-3576,PAYLOAD,2024-04-18 11:55:27,15.08858325,0.0001714,53.2161,217.7004,84.2751,275.8437,0.00048575,7.455e-05,0.0,0 STARLINK-3576,1 51883U 22022AH  24109.49684168  .00007455  00000-0  48575-3 0  9998,2 51883  53.2161 217.7004 0001714  84.2751 275.8437 15.08858325119042,6917.824,95.436,540.875,538.504,0.0
51883.0,STARLINK-3576,PAYLOAD,2024-04-19 13:21:37,15.08836701,0.0001628,53.2162,212.9327,126.7703,233.3439,0.00036227,5.482e-05,0.0,0 STARLINK-3576,1 51883U 22022AH  24110.55668567  .00005482  00000-0  36227-3 0  9991,2 51883  53.2162 212.9327 0001628 126.7703 233.3439 15.08836701119204,6917.89,95.438,540.882,538.629,0.0
51883.0,STARLINK-3576,PAYLOAD,2024-04-19 16:32:23,15.08840335,0.0002048,53.2169,212.3372,134.4397,225.6763,0.0003772,5.72e-05,0.0,0 STARLINK-3576,1 51883U 22022AH  24110.68916284  .00005720  00000-0  37720-3 0  9991,2 51883  53.2169 212.3372 0002048 134.4397 225.6763 15.08840335119221,6917.879,95.438,541.161,538.328,0.0
51883.0,STARLINK-3576,PAYLOAD,2024-04-20 13:12:24,15.08832652,0.0001637,53.2167,208.4834,98.7121,261.4057,-0.00029644,-5.002e-05,0.0,0 STARLINK-3576,1 51883U 22022AH  24111.55028615 -.00005002  00000-0 -29644-3 0  9991,2 51883  53.2167 208.4834 0001637  98.7121 261.4057 15.08832652119359,6917.903,95.438,540.9,538.635,0.0
51883.0,STARLINK-3576,PAYLOAD,2024-04-21 11:27:49,15.08826041,0.0001281,53.2163,204.3166,96.9688,263.145,0.00017619,2.516e-05,0.0,0 STARLINK-3576,1 51883U 22022AH  24112.47765552  .00002516  00000-0  17619-3 0  9995,2 51883  53.2163 204.3166 0001281  96.9688 263.1450 15.08826041119497,6917.923,95.438,540.674,538.902,0.0
51883.0,STARLINK-3576,PAYLOAD,2024-04-21 16:13:58,15.08831413,0.0001248,53.2159,203.4166,94.3983,265.7152,0.00024992,3.691e-05,0.0,0 STARLINK-3576,1 51883U 22022AH  24112.67637470  .00003691  00000-0  24992-3 0  9991,2 51883  53.2159 203.4166 0001248  94.3983 265.7152 15.08831413119525,6917.907,95.438,540.635,538.908,0.0
51883.0,STARLINK-3576,PAYLOAD,2024-04-22 09:43:13,15.08831977,0.0002323,53.2158,200.1503,138.3112,221.8057,0.00012755,1.742e-05,0.0,0 STARLINK-3576,1 51883U 22022AH  24113.40501662  .00001742  00000-0  12755-3 0  9995,2 51883  53.2158 200.1503 0002323 138.3112 221.8057 15.08831977119635,6917.905,95.438,541.377,538.163,0.0
51883.0,STARLINK-3576,PAYLOAD,2024-04-22 11:18:36,15.08825888,0.0001561,53.2168,199.8608,126.4283,233.6853,2.7096e-05,1.43e-06,0.0,0 STARLINK-3576,1 51883U 22022AH  24113.47126085  .00000143  00000-0  27096-4 0  9993,2 51883  53.2168 199.8608 0001561 126.4283 233.6853 15.08825888119646,6917.924,95.438,540.868,538.709,0.0
51883.0,STARLINK-3576,PAYLOAD,2024-04-23 12:44:47,15.08844372,0.0001365,53.2163,195.0967,110.2032,249.9107,0.00030774,4.614e-05,0.0,0 STARLINK-3576,1 51883U 22022AH  24114.53109995  .00004614  00000-0  30774-3 0  9995,2 51883  53.2163 195.0967 0001365 110.2032 249.9107 15.08844372119801,6917.867,95.437,540.676,538.788,0.0
51883.0,STARLINK-3576,PAYLOAD,2024-04-24 12:35:34,15.08845697,0.0001153,53.2154,190.6392,98.9232,261.1891,0.00025105,3.71e-05,0.0,0 STARLINK-3576,1 51883U 22022AH  24115.52470086  .00003710  00000-0  25105-3 0  9995,2 51883  53.2154 190.6392 0001153  98.9232 261.1891 15.08845697119956,6917.863,95.437,540.526,538.93,0.0
51883.0,STARLINK-3576,PAYLOAD,2024-04-25 12:26:21,15.08843856,0.0001743,53.2156,186.1778,64.0033,296.1138,8.2982e-05,1.033e-05,0.0,0 STARLINK-3576,1 51883U 22022AH  24116.51830425  .00001033  00000-0  82982-4 0  9995,2 51883  53.2156 186.1778 0001743  64.0033 296.1138 15.08843856120100,6917.869,95.437,540.939,538.528,0.0
51883.0,STARLINK-3576,PAYLOAD,2024-04-26 13:52:30,15.08854555,0.0001368,53.215,181.4177,86.4447,273.6701,0.00028209,4.206e-05,0.0,0 STARLINK-3576,1 51883U 22022AH  24117.57813420  .00004206  00000-0  28209-3 0  9994,2 51883  53.2150 181.4177 0001368  86.4447 273.6701 15.08854555120266,6917.836,95.437,540.647,538.755,0.0
51883.0,STARLINK-3576,PAYLOAD,2024-04-27 10:32:31,15.08848127,0.0001514,53.2156,177.5516,100.9057,259.2106,7.0343e-05,8.32e-06,0.0,0 STARLINK-3576,1 51883U 22022AH  24118.43925171  .00000832  00000-0  70343-4 0  9995,2 51883  53.2156 177.5516 0001514 100.9057 259.2106 15.08848127120398,6917.856,95.437,540.768,538.673,0.0
51883.0,STARLINK-3576,PAYLOAD,2024-04-28 10:23:18,15.08836179,0.0001419,53.2166,173.093,84.0518,276.0636,-0.00019251,-3.35e-05,0.0,0 STARLINK-3576,1 51883U 22022AH  24119.43285768 -.00003350  00000-0 -19251-3 0  9997,2 51883  53.2166 173.0930 0001419  84.0518 276.0636 15.08836179120544,6917.892,95.438,540.739,538.775,0.0
51883.0,STARLINK-3576,PAYLOAD,2024-04-28 13:34:05,15.08829831,0.0001409,53.2161,172.4969,83.1223,276.993,-0.00025795,-4.39e-05,0.0,0 STARLINK-3576,1 51883U 22022AH  24119.56534008 -.00004390  00000-0 -25795-3 0  9990,2 51883  53.2161 172.4969 0001409  83.1223 276.9930 15.08829831120561,6917.911,95.438,540.751,538.802,0.0
51883.0,STARLINK-3576,PAYLOAD,2024-04-29 10:14:06,15.08835984,0.0001358,53.2152,168.6317,85.3778,274.7369,0.00012562,1.712e-05,0.0,0 STARLINK-3576,1 51883U 22022AH  24120.42646139  .00001712  00000-0  12562-3 0  9997,2 51883  53.2152 168.6317 0001358  85.3778 274.7369 15.08835984120699,6917.893,95.438,540.697,538.818,0.0
51883.0,STARLINK-3576,PAYLOAD,2024-04-29 19:46:24,15.08844027,0.0001351,53.2151,166.8475,81.409,278.7055,0.00015307,2.149e-05,0.0,0 STARLINK-3576,1 51883U 22022AH  24120.82389771  .00002149  00000-0  15307-3 0  9992,2 51883  53.2151 166.8475 0001351  81.4090 278.7055 15.08844027120751,6917.868,95.437,540.668,538.798,0.0
51883.0,STARLINK-3576,PAYLOAD,2024-04-30 10:04:53,15.08836279,0.0001451,53.2155,164.1726,82.7537,277.3621,0.00026736,3.969e-05,0.0,0 STARLINK-3576,1 51883U 22022AH  24121.42006570  .00003969  00000-0  26736-3 0  9991,2 51883  53.2155 164.1726 0001451  82.7537 277.3621 15.08836279120840,6917.892,95.438,540.761,538.753,0.0
